start=new Date('2022-06-10T00:00:00.000Z').valueOf();
sats=[{"PERIOD":"91.619","OBJECT_TYPE":"PAYLOAD","ELEMENT_SET_NO":"999","TLE_LINE2":"2 52363  53.2176 233.2094 0002596   6.0074 265.9737 15.71725701  1306","REF_FRAME":"TEME","NORAD_CAT_ID":"52363","REV_AT_EPOCH":"130","INCLINATION":"53.2176","PERIAPSIS":"352.219","DECAY_DATE":null,"RA_OF_ASC_NODE":"233.2094","GP_ID":"205784415","COUNTRY_CODE":"US","MEAN_MOTION":"15.71725701","RCS_SIZE":"LARGE","LAUNCH_DATE":"2022-04-29","EPHEMERIS_TYPE":"0","BSTAR":"-0.00593120000000","OBJECT_ID":"2022-045AJ","ARG_OF_PERICENTER":"6.0074","FILE":"3489040","MEAN_ELEMENT_THEORY":"SGP4","CLASSIFICATION_TYPE":"U","TLE_LINE1":"1 52363U 22045AJ  22160.91667824 -.00718894  00000-0 -59312-2 0  9997","MEAN_MOTION_DDOT":"0.0000000000000","MEAN_MOTION_DOT":"-0.00718894","APOAPSIS":"355.714","MEAN_ANOMALY":"265.9737","CENTER_NAME":"EARTH","OBJECT_NAME":"STARLINK-3830","SEMIMAJOR_AXIS":"6732.102","TIME_SYSTEM":"UTC","ECCENTRICITY":"0.00025960","SITE":"AFETR","EPOCH":"2022-06-09T22:00:00.999936"},{"MEAN_MOTION_DDOT":"0.0000000000000","MEAN_MOTION_DOT":"0.00065608","FILE":"3488955","MEAN_ELEMENT_THEORY":"SGP4","TLE_LINE1":"1 52364U 22045AK  22161.00001157  .00065608  00000-0  46880-3 0  9993","CLASSIFICATION_TYPE":"U","TIME_SYSTEM":"UTC","EPOCH":"2022-06-10T00:00:00.999648","SITE":"AFETR","ECCENTRICITY":"0.00026070","CENTER_NAME":"EARTH","OBJECT_NAME":"STARLINK-3820","MEAN_ANOMALY":"6.4472","APOAPSIS":"351.601","SEMIMAJOR_AXIS":"6727.982","RA_OF_ASC_NODE":"232.7758","DECAY_DATE":null,"PERIAPSIS":"348.093","GP_ID":"205757364","COUNTRY_CODE":"US","MEAN_MOTION":"15.73169378","RCS_SIZE":"LARGE","ELEMENT_SET_NO":"999","PERIOD":"91.535","OBJECT_TYPE":"PAYLOAD","REV_AT_EPOCH":"902","INCLINATION":"53.2142","TLE_LINE2":"2 52364  53.2142 232.7758 0002607  24.0457   6.4472 15.73169378  9024","NORAD_CAT_ID":"52364","REF_FRAME":"TEME","LAUNCH_DATE":"2022-04-29","OBJECT_ID":"2022-045AK","BSTAR":"0.00046880000000","EPHEMERIS_TYPE":"0","ARG_OF_PERICENTER":"24.0457"},{"APOAPSIS":"351.508","MEAN_ANOMALY":"7.8513","OBJECT_NAME":"STARLINK-3874","CENTER_NAME":"EARTH","SEMIMAJOR_AXIS":"6727.983","TIME_SYSTEM":"UTC","SITE":"AFETR","ECCENTRICITY":"0.00024670","EPOCH":"2022-06-10T00:00:00.999648","MEAN_ELEMENT_THEORY":"SGP4","FILE":"3488955","CLASSIFICATION_TYPE":"U","TLE_LINE1":"1 52365U 22045AL  22161.00001157  .00064817  00000-0  46326-3 0  9990","MEAN_MOTION_DDOT":"0.0000000000000","MEAN_MOTION_DOT":"0.00064817","LAUNCH_DATE":"2022-04-29","ARG_OF_PERICENTER":"20.2571","BSTAR":"0.00046326000000","EPHEMERIS_TYPE":"0","OBJECT_ID":"2022-045AL","OBJECT_TYPE":"PAYLOAD","PERIOD":"91.535","ELEMENT_SET_NO":"999","REF_FRAME":"TEME","NORAD_CAT_ID":"52365","TLE_LINE2":"2 52365  53.2142 232.7813 0002467  20.2571   7.8513 15.73169083  9020","INCLINATION":"53.2142","REV_AT_EPOCH":"902","DECAY_DATE":null,"PERIAPSIS":"348.189","RA_OF_ASC_NODE":"232.7813","RCS_SIZE":"LARGE","MEAN_MOTION":"15.73169083","GP_ID":"205757725","COUNTRY_CODE":"US"},{"EPOCH":"2022-06-09T22:00:00.999936","ECCENTRICITY":"0.00025970","SITE":"AFETR","TIME_SYSTEM":"UTC","SEMIMAJOR_AXIS":"6727.924","CENTER_NAME":"EARTH","OBJECT_NAME":"STARLINK-3808","MEAN_ANOMALY":"257.7393","APOAPSIS":"351.537","MEAN_MOTION_DOT":"0.00011278","MEAN_MOTION_DDOT":"0.0000000000000","TLE_LINE1":"1 52366U 22045AM  22160.91667824  .00011278  00000-0  84704-4 0  9995","CLASSIFICATION_TYPE":"U","FILE":"3489040","MEAN_ELEMENT_THEORY":"SGP4","BSTAR":"0.00008470400000","OBJECT_ID":"2022-045AM","EPHEMERIS_TYPE":"0","ARG_OF_PERICENTER":"21.6881","LAUNCH_DATE":"2022-04-29","COUNTRY_CODE":"US","GP_ID":"205783857","MEAN_MOTION":"15.73189771","RCS_SIZE":"LARGE","RA_OF_ASC_NODE":"233.1857","DECAY_DATE":null,"PERIAPSIS":"348.042","INCLINATION":"53.2141","REV_AT_EPOCH":"130","TLE_LINE2":"2 52366  53.2141 233.1857 0002597  21.6881 257.7393 15.73189771  1307","REF_FRAME":"TEME","NORAD_CAT_ID":"52366","ELEMENT_SET_NO":"999","PERIOD":"91.534","OBJECT_TYPE":"PAYLOAD"},{"PERIOD":"91.535","OBJECT_TYPE":"PAYLOAD","ELEMENT_SET_NO":"999","TLE_LINE2":"2 52367  53.2141 233.1904 0002654  25.0189 252.5900 15.73168507  1305","NORAD_CAT_ID":"52367","REF_FRAME":"TEME","INCLINATION":"53.2141","REV_AT_EPOCH":"130","PERIAPSIS":"348.064","DECAY_DATE":null,"RA_OF_ASC_NODE":"233.1904","GP_ID":"205784069","MEAN_MOTION":"15.73168507","COUNTRY_CODE":"US","RCS_SIZE":"LARGE","LAUNCH_DATE":"2022-04-29","BSTAR":"0.00008522400000","OBJECT_ID":"2022-045AN","EPHEMERIS_TYPE":"0","ARG_OF_PERICENTER":"25.0189","FILE":"3489040","MEAN_ELEMENT_THEORY":"SGP4","CLASSIFICATION_TYPE":"U","TLE_LINE1":"1 52367U 22045AN  22160.91667824  .00011340  00000-0  85224-4 0  9994","MEAN_MOTION_DDOT":"0.0000000000000","MEAN_MOTION_DOT":"0.00011340","APOAPSIS":"351.636","MEAN_ANOMALY":"252.5900","CENTER_NAME":"EARTH","OBJECT_NAME":"STARLINK-3817","SEMIMAJOR_AXIS":"6727.985","TIME_SYSTEM":"UTC","SITE":"AFETR","ECCENTRICITY":"0.00026540","EPOCH":"2022-06-09T22:00:00.999936"},{"MEAN_ANOMALY":"254.2354","APOAPSIS":"351.472","CENTER_NAME":"EARTH","OBJECT_NAME":"STARLINK-3834","SEMIMAJOR_AXIS":"6727.896","TIME_SYSTEM":"UTC","SITE":"AFETR","ECCENTRICITY":"0.00025430","EPOCH":"2022-06-09T22:00:00.999936","FILE":"3489040","MEAN_ELEMENT_THEORY":"SGP4","CLASSIFICATION_TYPE":"U","TLE_LINE1":"1 52368U 22045AP  22160.91667824  .00010784  00000-0  81159-4 0  9999","MEAN_MOTION_DDOT":"0.0000000000000","MEAN_MOTION_DOT":"0.00010784","LAUNCH_DATE":"2022-04-29","OBJECT_ID":"2022-045AP","BSTAR":"0.00008115900000","EPHEMERIS_TYPE":"0","ARG_OF_PERICENTER":"27.0341","PERIOD":"91.533","OBJECT_TYPE":"PAYLOAD","ELEMENT_SET_NO":"999","TLE_LINE2":"2 52368  53.2140 233.1820 0002543  27.0341 254.2354 15.73199673  1301","REF_FRAME":"TEME","NORAD_CAT_ID":"52368","INCLINATION":"53.2140","REV_AT_EPOCH":"130","PERIAPSIS":"348.050","DECAY_DATE":null,"RA_OF_ASC_NODE":"233.1820","MEAN_MOTION":"15.73199673","GP_ID":"205783964","COUNTRY_CODE":"US","RCS_SIZE":"MEDIUM"},{"CLASSIFICATION_TYPE":"U","TLE_LINE1":"1 52369U 22045AQ  22161.00001157  .00064537  00000-0  46127-3 0  9992","MEAN_ELEMENT_THEORY":"SGP4","FILE":"3488955","MEAN_MOTION_DOT":"0.00064537","MEAN_MOTION_DDOT":"0.0000000000000","SEMIMAJOR_AXIS":"6727.981","MEAN_ANOMALY":"9.7443","APOAPSIS":"351.499","OBJECT_NAME":"STARLINK-3841","CENTER_NAME":"EARTH","SITE":"AFETR","ECCENTRICITY":"0.00024570","EPOCH":"2022-06-10T00:00:00.999648","TIME_SYSTEM":"UTC","REF_FRAME":"TEME","NORAD_CAT_ID":"52369","TLE_LINE2":"2 52369  53.2141 232.7747 0002457  21.3488   9.7443 15.73170002  9023","INCLINATION":"53.2141","REV_AT_EPOCH":"902","OBJECT_TYPE":"PAYLOAD","PERIOD":"91.535","ELEMENT_SET_NO":"999","RCS_SIZE":"LARGE","COUNTRY_CODE":"US","GP_ID":"205757721","MEAN_MOTION":"15.73170002","DECAY_DATE":null,"PERIAPSIS":"348.193","RA_OF_ASC_NODE":"232.7747","ARG_OF_PERICENTER":"21.3488","EPHEMERIS_TYPE":"0","BSTAR":"0.00046127000000","OBJECT_ID":"2022-045AQ","LAUNCH_DATE":"2022-04-29"},{"BSTAR":"0.00008983200000","EPHEMERIS_TYPE":"0","OBJECT_ID":"2022-045AR","ARG_OF_PERICENTER":"24.9204","LAUNCH_DATE":"2022-04-29","GP_ID":"205784204","MEAN_MOTION":"15.73185928","COUNTRY_CODE":"US","RCS_SIZE":"LARGE","DECAY_DATE":null,"PERIAPSIS":"347.930","RA_OF_ASC_NODE":"233.1841","TLE_LINE2":"2 52370  53.2140 233.1841 0002780  24.9204 255.1248 15.73185928  1304","REF_FRAME":"TEME","NORAD_CAT_ID":"52370","REV_AT_EPOCH":"130","INCLINATION":"53.2140","PERIOD":"91.534","OBJECT_TYPE":"PAYLOAD","ELEMENT_SET_NO":"999","ECCENTRICITY":"0.00027800","SITE":"AFETR","EPOCH":"2022-06-09T22:00:00.999936","TIME_SYSTEM":"UTC","SEMIMAJOR_AXIS":"6727.935","APOAPSIS":"351.671","MEAN_ANOMALY":"255.1248","CENTER_NAME":"EARTH","OBJECT_NAME":"STARLINK-3827","MEAN_MOTION_DOT":"0.00011997","MEAN_MOTION_DDOT":"0.0000000000000","CLASSIFICATION_TYPE":"U","TLE_LINE1":"1 52370U 22045AR  22160.91667824  .00011997  00000-0  89832-4 0  9995","FILE":"3489040","MEAN_ELEMENT_THEORY":"SGP4"},{"MEAN_ANOMALY":"16.4644","APOAPSIS":"351.520","CENTER_NAME":"EARTH","OBJECT_NAME":"STARLINK-3798","SEMIMAJOR_AXIS":"6727.963","TIME_SYSTEM":"UTC","SITE":"AFETR","ECCENTRICITY":"0.00025160","EPOCH":"2022-06-10T00:00:00.999648","MEAN_ELEMENT_THEORY":"SGP4","FILE":"3488956","CLASSIFICATION_TYPE":"U","TLE_LINE1":"1 52371U 22045AS  22161.00001157  .00066156  00000-0  47251-3 0  9993","MEAN_MOTION_DDOT":"0.0000000000000","MEAN_MOTION_DOT":"0.00066156","LAUNCH_DATE":"2022-04-29","OBJECT_ID":"2022-045AS","BSTAR":"0.00047251000000","EPHEMERIS_TYPE":"0","ARG_OF_PERICENTER":"16.3746","PERIOD":"91.535","OBJECT_TYPE":"PAYLOAD","ELEMENT_SET_NO":"999","TLE_LINE2":"2 52371  53.2141 232.7708 0002516  16.3746  16.4644 15.73176376  9017","NORAD_CAT_ID":"52371","REF_FRAME":"TEME","INCLINATION":"53.2141","REV_AT_EPOCH":"901","DECAY_DATE":null,"PERIAPSIS":"348.135","RA_OF_ASC_NODE":"232.7708","MEAN_MOTION":"15.73176376","GP_ID":"205757738","COUNTRY_CODE":"US","RCS_SIZE":"LARGE"},{"MEAN_ELEMENT_THEORY":"SGP4","FILE":"3488958","TLE_LINE1":"1 52372U 22045AT  22161.00001157 -.00005123  00000-0 -32052-4 0  9997","CLASSIFICATION_TYPE":"U","MEAN_MOTION_DDOT":"0.0000000000000","MEAN_MOTION_DOT":"-0.00005123","CENTER_NAME":"EARTH","OBJECT_NAME":"STARLINK-3796","APOAPSIS":"351.506","MEAN_ANOMALY":"11.5135","SEMIMAJOR_AXIS":"6727.838","TIME_SYSTEM":"UTC","EPOCH":"2022-06-10T00:00:00.999648","ECCENTRICITY":"0.00026800","SITE":"AFETR","ELEMENT_SET_NO":"999","PERIOD":"91.532","OBJECT_TYPE":"PAYLOAD","REV_AT_EPOCH":"901","INCLINATION":"53.2139","TLE_LINE2":"2 52372  53.2139 232.7672 0002680  23.2530  11.5135 15.73219953  9015","REF_FRAME":"TEME","NORAD_CAT_ID":"52372","RA_OF_ASC_NODE":"232.7672","DECAY_DATE":null,"PERIAPSIS":"347.900","MEAN_MOTION":"15.73219953","GP_ID":"205757778","COUNTRY_CODE":"US","RCS_SIZE":"MEDIUM","LAUNCH_DATE":"2022-04-29","EPHEMERIS_TYPE":"0","BSTAR":"-0.00003205200000","OBJECT_ID":"2022-045AT","ARG_OF_PERICENTER":"23.2530"}];
